     2.100          NAVIGATION                              RINEX VERSION / TYPE
fic2rin                                 02/06/2016 00:03:56 PGM / RUN BY / DATE
                                                            END OF HEADER
31 16  2  5  8  0  0.0  .284011010081D-03 -.159161572810D-11  .000000000000D+00
     .770000000000D+02  .101125000000D+03  .391552023999D-08  .143419333168D+01
     .536628067493D-05  .835687411018D-02  .946223735809D-05  .515369338417D+04
     .460800000000D+06  .102445483208D-06  .301221964978D+01  .169500708580D-06
     .972780455296D+00  .200687500000D+03 -.437160428824D+00 -.768103423162D-08
     .392873507616D-11  .100000000000D+01  .188200000000D+04  .000000000000D+00
     .240000000000D+01  .000000000000D+00 -.135041773319D-07  .770000000000D+02
     .453606000000D+06  .400000000000D+01
 1 16  2  5 10  0  0.0  .109383836389D-04  .102318153949D-11  .000000000000D+00
     .820000000000D+02 -.378125000000D+02  .429625038464D-08 -.305697447437D+01
    -.197440385818D-05  .500965968240D-02  .115949660540D-04  .515365705490D+04
     .468000000000D+06 -.968575477600D-07 -.155927905949D+00 -.558793544769D-08
     .964132227817D+00  .156906250000D+03  .469253163466D+00 -.771174979676D-08
     .385730352932D-09  .100000000000D+01  .188200000000D+04  .000000000000D+00
     .240000000000D+01  .000000000000D+00  .512227416039D-08  .820000000000D+02
     .460806000000D+06  .400000000000D+01
 2 16  2  5 10  0  0.0  .599525403231D-03  .113686837722D-12  .000000000000D+00
     .580000000000D+02 -.598125000000D+02  .470769609444D-08 -.256548414856D+01
    -.303424894810D-05  .153956756694D-01  .110510736704D-04  .515372314644D+04
     .468000000000D+06  .303611159325D-06 -.198995008758D+00 -.135973095894D-06
     .942845204442D+00  .152156250000D+03 -.217298360826D+01 -.782925469131D-08
     .412874340731D-09  .100000000000D+01  .188200000000D+04  .000000000000D+00
     .240000000000D+01  .000000000000D+00 -.204890966415D-07  .580000000000D+02
     .460806000000D+06  .400000000000D+01
 3 16  2  5 10  0  0.0 -.207293778658D-04 -.477484718431D-11  .000000000000D+00
     .410000000000D+02  .150937500000D+02  .491306179160D-08 -.339292958971D+00
     .720843672752D-06  .299393432215D-03  .604614615440D-05  .515376349449D+04
     .468000000000D+06 -.186264514923D-08  .884807330931D+00  .372529029846D-08
     .959180724104D+00  .260156250000D+03  .297445484966D+01 -.814783939022D-08
     .191436545529D-09  .100000000000D+01  .188200000000D+04  .000000000000D+00
     .240000000000D+01  .000000000000D+00  .186264514923D-08  .410000000000D+02
     .460806000000D+06  .400000000000D+01
 5 16  2  5 10  0  0.0 -.148879364133D-03  .352429196937D-11  .000000000000D+00
     .690000000000D+02  .179062500000D+02  .524414701120D-08 -.121273986497D+00
     .916421413422D-06  .457918597385D-02  .604242086411D-05  .515371770859D+04
     .468000000000D+06  .242143869400D-07  .874395751739D+00  .372529029846D-07
     .946303380397D+00  .252531250000D+03  .486231647328D+00 -.840535011657D-08
     .208937274505D-09  .100000000000D+01  .188200000000D+04  .000000000000D+00
     .240000000000D+01  .000000000000D+00 -.107102096081D-07  .690000000000D+02
     .460806000000D+06  .400000000000D+01
 6 16  2  5 10  0  0.0  .140596646816D-03  .613908923697D-11  .000000000000D+00
     .940000000000D+02 -.539375000000D+02  .432732310752D-08 -.197341610552D+01
    -.262819230556D-05  .296145677567D-03  .113509595394D-04  .515363702774D+04
     .468000000000D+06  .279396772385D-07 -.164373943520D+00  .745058059692D-07
     .963977670522D+00  .163312500000D+03 -.216476994937D+01 -.780639659632D-08
     .370729728096D-09  .100000000000D+01  .188200000000D+04  .000000000000D+00
     .240000000000D+01  .000000000000D+00  .419095158577D-08  .940000000000D+02
     .460806000000D+06  .400000000000D+01
 7 16  2  5 10  0  0.0  .470922794193D-03 -.159161572810D-11  .000000000000D+00
     .510000000000D+02  .112187500000D+03  .405909764914D-08  .252240449684D+01
     .575557351112D-05  .904081552289D-02  .106133520603D-04  .515368098831D+04
     .468000000000D+06 -.122934579849D-06  .300331831261D+01 -.117346644402D-06
     .967931190539D+00  .177062500000D+03 -.268042227636D+01 -.772853621027D-08
     .553594488004D-10  .100000000000D+01  .188200000000D+04  .000000000000D+00
     .240000000000D+01  .000000000000D+00 -.111758708954D-07  .510000000000D+02
     .460806000000D+06  .400000000000D+01
 8 16  2  5 10  0  0.0 -.227000564337D-04 -.136424205266D-11  .000000000000D+00
     .560000000000D+02 -.110375000000D+03  .458733393801D-08  .272161550107D+00
    -.584870576859D-05  .178623828106D-02  .575929880142D-05  .515364508629D+04
     .468000000000D+06 -.149011611938D-07 -.121539781888D+01  .745058059692D-08
     .961848878947D+00  .267718750000D+03 -.141380447710D+01 -.827427322812D-08
    -.216080429189D-09  .100000000000D+01  .188200000000D+04  .000000000000D+00
     .240000000000D+01  .000000000000D+00  .465661287308D-08  .560000000000D+02
     .460806000000D+06  .400000000000D+01
 9 16  2  5 10  0  0.0  .644614920020D-04  .773070496507D-11  .000000000000D+00
     .930000000000D+02 -.903125000000D+01  .472269671927D-08 -.929940802601D+00
    -.551342964172D-06  .624721054919D-03  .850483775139D-05  .515364058685D+04
     .468000000000D+06  .223517417908D-07  .192575394631D+01  .111758708954D-07
     .955301249686D+00  .212062500000D+03  .188884367029D+01 -.804176354316D-08
    -.567880797372D-09  .100000000000D+01  .188200000000D+04  .000000000000D+00
     .240000000000D+01  .000000000000D+00  .139698386192D-08  .930000000000D+02
     .460806000000D+06  .400000000000D+01
10 16  2  5 10  0  0.0  .464399345219D-04 -.318323145621D-11  .000000000000D+00
     .590000000000D+02  .190000000000D+02  .497985028790D-08  .112400599833D+01
     .111013650894D-05  .110675673932D-02  .585429370403D-05  .515367976570D+04
     .468000000000D+06  .819563865662D-07  .880705576351D+00 -.428408384323D-07
     .959446281772D+00  .264312500000D+03 -.292714034269D+01 -.829213111483D-08
     .163221084528D-09  .100000000000D+01  .188200000000D+04  .000000000000D+00
     .240000000000D+01  .000000000000D+00  .232830643654D-08  .590000000000D+02
     .460806000000D+06  .400000000000D+01
11 16  2  5 10  0  0.0 -.630800612271D-03 -.193267624127D-11  .000000000000D+00
     .740000000000D+02 -.896250000000D+02  .569702301816D-08  .264140350236D+01
    -.466778874397D-05  .162045519101D-01  .104531645775D-04  .515365787315D+04
     .468000000000D+06  .154599547386D-06 -.524800849045D+00 -.121071934700D-06
     .895811002810D+00  .138656250000D+03  .149954143024D+01 -.826141554969D-08
     .796461747257D-10  .100000000000D+01  .188200000000D+04  .000000000000D+00
     .240000000000D+01  .000000000000D+00 -.121071934700D-07  .740000000000D+02
     .460806000000D+06  .400000000000D+01
12 16  2  5 10  0  0.0  .365946907550D-03  .261479726760D-11  .000000000000D+00
     .660000000000D+02  .593437500000D+02  .405052586352D-08  .213499066167D+01
     .302493572235D-05  .580407679081D-02  .250339508057D-05  .515378747940D+04
     .468000000000D+06 -.115483999252D-06 -.220657167339D+01 -.558793544769D-08
     .990255852931D+00  .344843750000D+03  .665819090381D+00 -.808533678673D-08
     .247510309798D-09  .100000000000D+01  .188200000000D+04  .000000000000D+00
     .240000000000D+01  .000000000000D+00 -.121071934700D-07  .660000000000D+02
     .460806000000D+06  .400000000000D+01
13 16  2  5 10  0  0.0 -.183250289410D-03 -.250111042988D-11  .000000000000D+00
     .750000000000D+02 -.150312500000D+02  .419267464173D-08 -.280456419525D+01
    -.722706317902D-06  .465575896669D-02  .942498445511D-05  .515368154716D+04
     .468000000000D+06  .279396772385D-07  .204479715097D+01 -.279396772385D-07
     .971859235301D+00  .204343750000D+03  .198418150755D+01 -.772032158238D-08
    -.637169397806D-09  .100000000000D+01  .188200000000D+04  .000000000000D+00
     .240000000000D+01  .000000000000D+00 -.111758708954D-07  .750000000000D+02
     .460806000000D+06  .400000000000D+01
14 16  2  5 10  0  0.0  .491272658110D-05 -.227373675443D-11  .000000000000D+00
     .107000000000D+03 -.993750000000D+01  .451590239118D-08 -.976019941091D+00
    -.478699803352D-06  .831028178800D-02  .858493149281D-05  .515371895981D+04
     .468000000000D+06 -.167638063431D-07  .200847606520D+01  .234693288803D-06
     .964326204903D+00  .218750000000D+03 -.194951014280D+01 -.807212195057D-08
    -.577524056195D-09  .100000000000D+01  .188200000000D+04  .000000000000D+00
     .240000000000D+01  .000000000000D+00 -.931322574615D-08  .107000000000D+03
     .460806000000D+06  .400000000000D+01
15 16  2  5 10  0  0.0 -.295710284263D-03 -.181898940355D-11  .000000000000D+00
     .340000000000D+02 -.298125000000D+02  .528021994235D-08 -.178333188293D+01
    -.159814953804D-05  .805686158128D-02  .759027898312D-05  .515378831863D+04
     .468000000000D+06 -.167638063431D-07  .187593061529D+01 -.147148966789D-06
     .931051739665D+00  .217187500000D+03  .478001061017D+00 -.829677416538D-08
    -.456804742037D-09  .100000000000D+01  .188200000000D+04  .000000000000D+00
     .240000000000D+01  .000000000000D+00 -.107102096081D-07  .340000000000D+02
     .460806000000D+06  .400000000000D+01
16 16  2  5 10  0  0.0 -.423570163548D-04  .318323145621D-11  .000000000000D+00
     .960000000000D+02  .331250000000D+02  .410302805044D-08  .586012549661D-01
     .186637043953D-05  .850112293847D-02  .223889946938D-05  .515369919968D+04
     .468000000000D+06  .115483999252D-06 -.218781394175D+01  .130385160446D-07
     .990763327509D+00  .349843750000D+03  .321858059297D+00 -.823355724642D-08
     .180007498035D-09  .100000000000D+01  .188200000000D+04  .000000000000D+00
     .340000000000D+01  .000000000000D+00 -.102445483208D-07  .960000000000D+02
     .460806000000D+06  .400000000000D+01
